{
  "type": "FeatureCollection",
  "features": [
    {
      "type": "Feature",
      "properties": {
        "norad_id": 34750,
        "name": "COSMOS 2251 DEB",
        "group": "cosmos-2251-debris",
        "lat": 65.2560524682277,
        "lon": -112.14116980053112,
        "alt_km": 683.9526124978902,
        "timestamp": "2025-12-08T13:49:32.189247+00:00",
        "meta_object_name": "COSMOS 2251 DEB",
        "meta_object_id": "1993-036ZU",
        "meta_epoch": "2025-12-08T02:42:02.731104",
        "meta_mean_motion": 14.61252571,
        "meta_eccentricity": 0.00390856,
        "meta_inclination": 74.1081,
        "meta_ra_of_asc_node": 210.5595,
        "meta_arg_of_pericenter": 165.2822,
        "meta_mean_anomaly": 348.5625,
        "meta_ephemeris_type": 0,
        "meta_classification_type": "U",
        "meta_norad_cat_id": 34750,
        "meta_element_set_no": 999,
        "meta_rev_at_epoch": 88163,
        "meta_bstar": 0.0013001667,
        "meta_mean_motion_dot": 6.459e-05,
        "meta_mean_motion_ddot": 0,
        "tle_line1": "1 34750U 93036ZU  25342.11253161  .00006459  00000+0  13002-2 0  9997",
        "tle_line2": "2 34750  74.1081 210.5595 0039085 165.2822 348.5625 14.61252571881633"
      },
      "geometry": {
        "type": "Point",
        "coordinates": [
          -112.14116980053112,
          65.2560524682277
        ]
      }
    },
    {
      "type": "Feature",
      "properties": {
        "norad_id": 34752,
        "name": "COSMOS 2251 DEB",
        "group": "cosmos-2251-debris",
        "lat": -5.513647774626123,
        "lon": 7.493150433053922,
        "alt_km": 598.0111626682801,
        "timestamp": "2025-12-08T13:49:32.189257+00:00",
        "meta_object_name": "COSMOS 2251 DEB",
        "meta_object_id": "1993-036ZW",
        "meta_epoch": "2025-12-07T12:14:11.612832",
        "meta_mean_motion": 14.99757687,
        "meta_eccentricity": 0.00479353,
        "meta_inclination": 74.0147,
        "meta_ra_of_asc_node": 11.2469,
        "meta_arg_of_pericenter": 141.5574,
        "meta_mean_anomaly": 218.9045,
        "meta_ephemeris_type": 0,
        "meta_classification_type": "U",
        "meta_norad_cat_id": 34752,
        "meta_element_set_no": 999,
        "meta_rev_at_epoch": 89771,
        "meta_bstar": 0.001584383,
        "meta_mean_motion_dot": 0.00020079,
        "meta_mean_motion_ddot": 0,
        "tle_line1": "1 34752U 93036ZW  25341.50985663  .00020079  00000+0  15844-2 0  9990",
        "tle_line2": "2 34752  74.0147  11.2469 0047935 141.5574 218.9045 14.99757687897718"
      },
      "geometry": {
        "type": "Point",
        "coordinates": [
          7.493150433053922,
          -5.513647774626123
        ]
      }
    },
    {
      "type": "Feature",
      "properties": {
        "norad_id": 34754,
        "name": "COSMOS 2251 DEB",
        "group": "cosmos-2251-debris",
        "lat": 40.12386837932256,
        "lon": 41.33857060656099,
        "alt_km": 770.7294012717393,
        "timestamp": "2025-12-08T13:49:32.189267+00:00",
        "meta_object_name": "COSMOS 2251 DEB",
        "meta_object_id": "1993-036ZY",
        "meta_epoch": "2025-12-08T03:53:16.177056",
        "meta_mean_motion": 14.40470967,
        "meta_eccentricity": 0.00293671,
        "meta_inclination": 74.0306,
        "meta_ra_of_asc_node": 236.0696,
        "meta_arg_of_pericenter": 353.0849,
        "meta_mean_anomaly": 158.1545,
        "meta_ephemeris_type": 0,
        "meta_classification_type": "U",
        "meta_norad_cat_id": 34754,
        "meta_element_set_no": 999,
        "meta_rev_at_epoch": 88067,
        "meta_bstar": 0.00035289691,
        "meta_mean_motion_dot": 1.101e-05,
        "meta_mean_motion_ddot": 0,
        "tle_line1": "1 34754U 93036ZY  25342.16199279  .00001101  00000+0  35290-3 0  9998",
        "tle_line2": "2 34754  74.0306 236.0696 0029367 353.0849 158.1545 14.40470967880676"
      },
      "geometry": {
        "type": "Point",
        "coordinates": [
          41.33857060656099,
          40.12386837932256
        ]
      }
    },
    {
      "type": "Feature",
      "properties": {
        "norad_id": 34755,
        "name": "COSMOS 2251 DEB",
        "group": "cosmos-2251-debris",
        "lat": 27.22310760855715,
        "lon": 108.18841527909916,
        "alt_km": 1362.7993961943703,
        "timestamp": "2025-12-08T13:49:32.189278+00:00",
        "meta_object_name": "COSMOS 2251 DEB",
        "meta_object_id": "1993-036ZZ",
        "meta_epoch": "2025-12-07T05:21:37.079712",
        "meta_mean_motion": 13.50532818,
        "meta_eccentricity": 0.04083361,
        "meta_inclination": 73.9259,
        "meta_ra_of_asc_node": 298.8912,
        "meta_arg_of_pericenter": 319.6826,
        "meta_mean_anomaly": 98.5646,
        "meta_ephemeris_type": 0,
        "meta_classification_type": "U",
        "meta_norad_cat_id": 34755,
        "meta_element_set_no": 999,
        "meta_rev_at_epoch": 82449,
        "meta_bstar": 0.0029279704,
        "meta_mean_motion_dot": 3.136e-05,
        "meta_mean_motion_ddot": 0,
        "tle_line1": "1 34755U 93036ZZ  25341.22334583  .00003136  00000+0  29280-2 0  9995",
        "tle_line2": "2 34755  73.9259 298.8912 0408336 319.6826  98.5646 13.50532818824490"
      },
      "geometry": {
        "type": "Point",
        "coordinates": [
          108.18841527909916,
          27.22310760855715
        ]
      }
    },
    {
      "type": "Feature",
      "properties": {
        "norad_id": 34756,
        "name": "COSMOS 2251 DEB",
        "group": "cosmos-2251-debris",
        "lat": 10.691624134703877,
        "lon": -71.88822256290078,
        "alt_km": 1265.3023497317117,
        "timestamp": "2025-12-08T13:49:32.189306+00:00",
        "meta_object_name": "COSMOS 2251 DEB",
        "meta_object_id": "1993-036AAA",
        "meta_epoch": "2025-12-08T02:27:45.880704",
        "meta_mean_motion": 13.6722694,
        "meta_eccentricity": 0.03447886,
        "meta_inclination": 74.0022,
        "meta_ra_of_asc_node": 111.9949,
        "meta_arg_of_pericenter": 348.8183,
        "meta_mean_anomaly": 10.5402,
        "meta_ephemeris_type": 0,
        "meta_classification_type": "U",
        "meta_norad_cat_id": 34756,
        "meta_element_set_no": 999,
        "meta_rev_at_epoch": 83358,
        "meta_bstar": 0.0012030155,
        "meta_mean_motion_dot": 1.5e-05,
        "meta_mean_motion_ddot": 0,
        "tle_line1": "1 34756U 93036AAA 25342.10261436  .00001500  00000+0  12030-2 0  9998",
        "tle_line2": "2 34756  74.0022 111.9949 0344788 348.8183  10.5402 13.67226940833584"
      },
      "geometry": {
        "type": "Point",
        "coordinates": [
          -71.88822256290078,
          10.691624134703877
        ]
      }
    },
    {
      "type": "Feature",
      "properties": {
        "norad_id": 34758,
        "name": "COSMOS 2251 DEB",
        "group": "cosmos-2251-debris",
        "lat": 54.508753508421606,
        "lon": -30.253407174841975,
        "alt_km": 761.2759580175662,
        "timestamp": "2025-12-08T13:49:32.189321+00:00",
        "meta_object_name": "COSMOS 2251 DEB",
        "meta_object_id": "1993-036AAC",
        "meta_epoch": "2025-12-08T04:43:03.824256",
        "meta_mean_motion": 13.58047561,
        "meta_eccentricity": 0.03809152,
        "meta_inclination": 74.1073,
        "meta_ra_of_asc_node": 306.8082,
        "meta_arg_of_pericenter": 71.6192,
        "meta_mean_anomaly": 292.5942,
        "meta_ephemeris_type": 0,
        "meta_classification_type": "U",
        "meta_norad_cat_id": 34758,
        "meta_element_set_no": 999,
        "meta_rev_at_epoch": 82848,
        "meta_bstar": 0.0015859564,
        "meta_mean_motion_dot": 1.824e-05,
        "meta_mean_motion_ddot": 0,
        "tle_line1": "1 34758U 93036AAC 25342.19657204  .00001824  00000+0  15860-2 0  9994",
        "tle_line2": "2 34758  74.1073 306.8082 0380915  71.6192 292.5942 13.58047561828483"
      },
      "geometry": {
        "type": "Point",
        "coordinates": [
          -30.253407174841975,
          54.508753508421606
        ]
      }
    },
    {
      "type": "Feature",
      "properties": {
        "norad_id": 34760,
        "name": "COSMOS 2251 DEB",
        "group": "cosmos-2251-debris",
        "lat": 65.29152845164481,
        "lon": 91.40057932225612,
        "alt_km": 838.9762055006531,
        "timestamp": "2025-12-08T13:49:32.189332+00:00",
        "meta_object_name": "COSMOS 2251 DEB",
        "meta_object_id": "1993-036AAE",
        "meta_epoch": "2025-12-08T06:51:47.154816",
        "meta_mean_motion": 14.19551533,
        "meta_eccentricity": 0.00965571,
        "meta_inclination": 74.0628,
        "meta_ra_of_asc_node": 310.3076,
        "meta_arg_of_pericenter": 3.4439,
        "meta_mean_anomaly": 62.6242,
        "meta_ephemeris_type": 0,
        "meta_classification_type": "U",
        "meta_norad_cat_id": 34760,
        "meta_element_set_no": 999,
        "meta_rev_at_epoch": 86625,
        "meta_bstar": 0.0010911736,
        "meta_mean_motion_dot": 2.386e-05,
        "meta_mean_motion_ddot": 0,
        "tle_line1": "1 34760U 93036AAE 25342.28596244  .00002386  00000+0  10912-2 0  9990",
        "tle_line2": "2 34760  74.0628 310.3076 0096557   3.4439  62.6242 14.19551533866250"
      },
      "geometry": {
        "type": "Point",
        "coordinates": [
          91.40057932225612,
          65.29152845164481
        ]
      }
    }
  ]
}